COSMOS 2251 DEB         
1 35605U 93036AMY 17345.85022485  .00000989  00000-0  27547-3 0  9998
2 35605  73.9041 170.3418 0107590   8.5810 351.7152 14.44416300452285
